EOSSAT-1                
1 55053U 23001AW  26068.73619225  .00007695  00000+0  24844-3 0  9992
2 55053  97.3357 130.2294 0011263 110.3168 249.9285 15.32339828176689
STARLINK-32741          
1 62526U 25004R   26068.41091689  .00027246  00000+0  99508-3 0  9996
2 62526  43.0005 218.1852 0001516 261.4176  98.6504 15.27609238 66458
